     2.10           GLONASS NAV DATA                        RINEX VERSION / TYPE
GS10 V12.00                             2023 11 30 16:43    PGM / RUN BY / DATE 
  2023    12     1    5.587935447693D-09                    CORR TO SYSTEM TIME 
    18                                                      LEAP SECONDS        
                                                            END OF HEADER       
16 23 11 30 19 15  0.0 2.110283821821D-05 0.000000000000D+00 6.840000000000D+04
    1.676883544922D+04 1.865853309631D+00-1.862645149231D-09 0.000000000000D+00
    4.492606445313D+03 1.753314018250D+00 1.862645149231D-09-1.000000000000D+00
    1.868122460938D+04-2.099865913391D+00-9.313225746155D-10 0.000000000000D+00
15 23 11 30 19 15  0.0 8.434802293777D-05-0.000000000000D+00 6.840000000000D+04
    1.878224804688D+04 4.478940963745D-01-1.862645149231D-09 0.000000000000D+00
    1.687684277344D+04 2.534818649292D-01 1.862645149231D-09 0.000000000000D+00
    3.622216308594D+03-3.518354415894D+00 9.313225746155D-10 0.000000000000D+00
17 23 11 30 19 15  0.0 3.953091800213D-05 2.728484105319D-12 6.840000000000D+04
    8.083798828125D+02-3.080744743347D+00-9.313225746155D-10 0.000000000000D+00
    1.068175048828D+04 7.495927810669D-01 4.656612873077D-09 4.000000000000D+00
    2.316351953125D+04-2.422637939453D-01 0.000000000000D+00 0.000000000000D+00
 9 23 11 30 19 15  0.0 1.561632379889D-04 2.728484105319D-12 6.840000000000D+04
    4.492556640625D+03 2.176874160767D+00-0.000000000000D+00 0.000000000000D+00
   -1.120764843750D+04 2.167685508728D+00 9.313225746155D-10-2.000000000000D+00
    2.249344189453D+04 6.383972167969D-01-2.793967723846D-09 0.000000000000D+00
18 23 11 30 19 15  0.0 1.145722344518D-04 1.818989403546D-12 6.840000000000D+04
    1.710170849609D+04-2.483065605164D+00-1.862645149231D-09 0.000000000000D+00
    4.601507812500D+03 4.186115264893D-01 1.862645149231D-09-3.000000000000D+00
    1.836000732422D+04 2.214708328247D+00-9.313225746155D-10 0.000000000000D+00
19 23 11 30 19 15  0.0-2.565830945969D-04-9.094947017729D-13 6.840000000000D+04
    2.477667919922D+04-8.039674758911D-01-1.862645149231D-09 0.000000000000D+00
   -2.313610839844D+03-9.086036682129D-02-0.000000000000D+00 3.000000000000D+00
    5.632446777344D+03 3.503164291382D+00-9.313225746155D-10 0.000000000000D+00
 8 23 11 30 19 15  0.0-7.347110658884D-05 0.000000000000D+00 6.840000000000D+04
   -7.410851074219D+03 7.751207351685D-01 0.000000000000D+00 0.000000000000D+00
   -1.112443017578D+04-2.865988731384D+00 9.313225746155D-10 6.000000000000D+00
    2.177118945313D+04-1.207169532776D+00-1.862645149231D-09 0.000000000000D+00
10 23 11 30 19 15  0.0-9.922496974468D-05-9.094947017729D-13 7.017000000000D+04
   -8.431267089844D+03 1.375962257385D+00 9.313225746155D-10 0.000000000000D+00
   -1.875498437500D+04 1.540684700012D+00-0.000000000000D+00-7.000000000000D+00
    1.502767236328D+04 2.699961662292D+00-2.793967723846D-09 0.000000000000D+00
 1 23 11 30 19 15  0.0 7.105059921741D-05 0.000000000000D+00 7.017000000000D+04
   -1.237462890625D+04 7.820396423340D-01 0.000000000000D+00 0.000000000000D+00
    8.582983886719D+03-2.709465980530D+00 3.725290298462D-09 1.000000000000D+00
    2.058330468750D+04 1.600118637085D+00 0.000000000000D+00 0.000000000000D+00
16 23 11 30 19 45  0.0 2.110376954079D-05 0.000000000000D+00 7.020000000000D+04
    1.994836914063D+04 1.619949340820D+00-1.862645149231D-09 0.000000000000D+00
    7.056401855469D+03 1.091687202454D+00 1.862645149231D-09-1.000000000000D+00
    1.422756494141D+04-2.816555023193D+00 0.000000000000D+00 0.000000000000D+00
15 23 11 30 19 45  0.0 8.434802293777D-05-0.000000000000D+00 7.020000000000D+04
    1.902289746094D+04-2.084493637085D-01-9.313225746155D-10 0.000000000000D+00
    1.676269091797D+04-3.509225845337D-01 9.313225746155D-10 0.000000000000D+00
   -2.769032714844D+03-3.536910057068D+00 1.862645149231D-09 0.000000000000D+00
17 23 11 30 19 45  0.0 3.953743726015D-05 2.728484105319D-12 7.020000000000D+04
   -4.496187988281D+03-2.766416549683D+00 0.000000000000D+00 0.000000000000D+00
    1.240121875000D+04 1.137409210205D+00 4.656612873077D-09 4.000000000000D+00
    2.183885791016D+04-1.220179557800D+00 0.000000000000D+00 0.000000000000D+00
 9 23 11 30 19 45  0.0 1.561678946018D-04 2.728484105319D-12 7.020000000000D+04
    8.726354492188D+03 2.490192413330D+00-0.000000000000D+00 0.000000000000D+00
   -7.548869140625D+03 1.863451004028D+00 9.313225746155D-10-2.000000000000D+00
    2.276012353516D+04-3.442258834839D-01-1.862645149231D-09 0.000000000000D+00
10 23 11 30 19 45  0.0-9.922683238983D-05-9.094947017729D-13 7.020000000000D+04
   -5.345883300781D+03 2.040711402893D+00 0.000000000000D+00 0.000000000000D+00
   -1.581839843750D+04 1.676299095154D+00 0.000000000000D+00-7.000000000000D+00
    1.924108154297D+04 1.951192855835D+00-2.793967723846D-09 0.000000000000D+00
18 23 11 30 19 45  0.0 1.145750284195D-04 1.818989403546D-12 7.020000000000D+04
    1.230107617188D+04-2.800739288330D+00-9.313225746155D-10 0.000000000000D+00
    5.823416015625D+03 9.461870193481D-01 2.793967723846D-09-3.000000000000D+00
    2.158566699219D+04 1.346263885498D+00-0.000000000000D+00 0.000000000000D+00
19 23 11 30 19 45  0.0-2.565858885646D-04-9.094947017729D-13 7.020000000000D+04
    2.260362109375D+04-1.581003189087D+00-1.862645149231D-09 0.000000000000D+00
   -2.152430175781D+03 3.031463623047D-01 9.313225746155D-10 3.000000000000D+00
    1.163910937500D+04 3.127609252930D+00-9.313225746155D-10 0.000000000000D+00
 8 23 11 30 19 45  0.0-7.347203791142D-05 0.000000000000D+00 7.020000000000D+04
   -6.462062011719D+03 2.878112792969D-01 0.000000000000D+00 0.000000000000D+00
   -1.604115283203D+04-2.548014640808D+00-0.000000000000D+00 6.000000000000D+00
    1.878819628906D+04-2.086044311523D+00-2.793967723846D-09 0.000000000000D+00
 1 23 11 30 19 45  0.0 7.105246186256D-05 0.000000000000D+00 7.020000000000D+04
   -1.127879492188D+04 4.134798049927D-01 0.000000000000D+00 0.000000000000D+00
    3.338759277344D+03-3.071781158447D+00 2.793967723846D-09 1.000000000000D+00
    2.263036083984D+04 6.596336364746D-01-9.313225746155D-10 0.000000000000D+00
16 23 11 30 20 15  0.0 2.110376954079D-05 0.000000000000D+00 7.200000000000D+04
    2.243832080078D+04 1.105017662048D+00-9.313225746155D-10 0.000000000000D+00
    8.443288085938D+03 4.640607833862D-01 1.862645149231D-09-1.000000000000D+00
    8.672583984375D+03-3.315549850464D+00 9.313225746155D-10 0.000000000000D+00
15 23 11 30 20 15  0.0 8.434709161520D-05-0.000000000000D+00 7.200000000000D+04
    1.795962695313D+04-9.843387603760D-01-9.313225746155D-10 0.000000000000D+00
    1.574034130859D+04-7.452592849731D-01 9.313225746155D-10 0.000000000000D+00
   -8.946040039063D+03-3.281818389893D+00 2.793967723846D-09 0.000000000000D+00
17 23 11 30 20 15  0.0 3.954302519560D-05 2.728484105319D-12 7.200000000000D+04
   -9.002557128906D+03-2.206381797791D+00 9.313225746155D-10 0.000000000000D+00
    1.466492187500D+04 1.340421676636D+00 3.725290298462D-09 4.000000000000D+00
    1.882706054688D+04-2.104681968689D+00 0.000000000000D+00 0.000000000000D+00
 9 23 11 30 20 15  0.0 1.561716198921D-04 1.818989403546D-12 7.200000000000D+04
    1.330472363281D+04 2.550602912903D+00-9.313225746155D-10 0.000000000000D+00
   -4.596697265625D+03 1.397571563721D+00 1.862645149231D-09-2.000000000000D+00
    2.126938671875D+04-1.301638603210D+00-9.313225746155D-10 0.000000000000D+00
10 23 11 30 20 15  0.0-9.922869503498D-05-0.000000000000D+00 7.200000000000D+04
   -1.159020996094D+03 2.582151412964D+00-0.000000000000D+00 0.000000000000D+00
   -1.287842333984D+04 1.549858093262D+00 9.313225746155D-10-7.000000000000D+00
    2.196141162109D+04 1.051888465881D+00-2.793967723846D-09 0.000000000000D+00
18 23 11 30 20 15  0.0 1.145796850324D-04 1.818989403546D-12 7.200000000000D+04
    7.204540039063D+03-2.810875892639D+00-0.000000000000D+00 0.000000000000D+00
    7.999561523438D+03 1.460042953491D+00 3.725290298462D-09-3.000000000000D+00
    2.314460302734D+04 3.748188018799D-01-0.000000000000D+00 0.000000000000D+00
19 23 11 30 20 15  0.0-2.565877512097D-04-9.094947017729D-13 7.200000000000D+04
    1.921827587891D+04-2.137241363525D+00-9.313225746155D-10 0.000000000000D+00
   -1.127075683594D+03 8.547916412354D-01 1.862645149231D-09 3.000000000000D+00
    1.674654052734D+04 2.510515213013D+00-9.313225746155D-10 0.000000000000D+00
 8 23 11 30 20 15  0.0-7.347203791142D-05 0.000000000000D+00 7.200000000000D+04
   -6.312725097656D+03-9.683322906494D-02 0.000000000000D+00 0.000000000000D+00
   -2.013442968750D+04-1.960030555725D+00-9.313225746155D-10 6.000000000000D+00
    1.435737695313D+04-2.805404663086D+00-2.793967723846D-09 0.000000000000D+00
 1 23 11 30 20 15  0.0 7.105432450771D-05 0.000000000000D+00 7.200000000000D+04
   -1.093553808594D+04-3.700160980225D-02 9.313225746155D-10 0.000000000000D+00
   -2.297890136719D+03-3.139700889587D+00 1.862645149231D-09 1.000000000000D+00
    2.292736132813D+04-3.317604064941D-01-1.862645149231D-09 0.000000000000D+00
20 23 11 30 20 15  0.0-1.044049859047D-04-0.000000000000D+00 7.230000000000D+04
    2.214215625000D+04 2.546968460083D-01-1.862645149231D-09 0.000000000000D+00
   -1.227814404297D+04-3.997278213501D-01-9.313225746155D-10 2.000000000000D+00
   -2.928280761719D+03 3.585281372070D+00-9.313225746155D-10 0.000000000000D+00
 2 23 11 30 20 15  0.0-2.233963459730D-05 0.000000000000D+00 7.290000000000D+04
   -8.742763671875D+03 1.979255676270D-01 9.313225746155D-10 0.000000000000D+00
    1.625874218750D+04-2.405228614807D+00 4.656612873077D-09-4.000000000000D+00
    1.767991943359D+04 2.308131217957D+00 9.313225746155D-10 0.000000000000D+00
